{
    "links": {
        "self": "http://www.neowsapp.com/rest/v1/neo/54051254?api_key=iIulBulltgU6a56xZRHN4H3l9WmuAYTsLGpBGhQ2"
    },
    "id": "54051254",
    "neo_reference_id": "54051254",
    "name": "(2020 QC2)",
    "designation": "2020 QC2",
    "nasa_jpl_url": "http://ssd.jpl.nasa.gov/sbdb.cgi?sstr=54051254",
    "absolute_magnitude_h": 23.059,
    "estimated_diameter": {
        "kilometers": {
            "estimated_diameter_min": 0.0649762999,
            "estimated_diameter_max": 0.1452914235
        },
        "meters": {
            "estimated_diameter_min": 64.9762998936,
            "estimated_diameter_max": 145.2914234885
        },
        "miles": {
            "estimated_diameter_min": 0.0403743884,
            "estimated_diameter_max": 0.0902798771
        },
        "feet": {
            "estimated_diameter_min": 213.176843743,
            "estimated_diameter_max": 476.6779138381
        }
    },
    "is_potentially_hazardous_asteroid": false,
    "close_approach_data": [
        {
            "close_approach_date": "2020-08-23",
            "close_approach_date_full": "2020-Aug-23 02:23",
            "epoch_date_close_approach": 1598149380000,
            "relative_velocity": {
                "kilometers_per_second": "17.6438348898",
                "kilometers_per_hour": "63517.8056033192",
                "miles_per_hour": "39467.494265018"
            },
            "miss_distance": {
                "astronomical": "0.1701876379",
                "lunar": "66.2029911431",
                "kilometers": "25459708.130171273",
                "miles": "15819929.0522306474"
            },
            "orbiting_body": "Earth"
        }
    ],
    "orbital_data": {
        "orbit_id": "3",
        "orbit_determination_date": "2020-08-27 06:50:10",
        "first_observation_date": "2020-08-15",
        "last_observation_date": "2020-08-26",
        "data_arc_in_days": 11,
        "observations_used": 25,
        "orbit_uncertainty": "8",
        "minimum_orbit_intersection": ".150923",
        "jupiter_tisserand_invariant": "3.969",
        "epoch_osculation": "2459079.5",
        "eccentricity": ".3570251965556702",
        "semi_major_axis": "1.705707190392825",
        "inclination": "30.84606218558089",
        "ascending_node_longitude": "327.9347890487462",
        "orbital_period": "813.682821415656",
        "perihelion_distance": "1.096726745476407",
        "perihelion_argument": "40.71894490753784",
        "aphelion_distance": "2.314687635309244",
        "perihelion_time": "2459119.087467852428",
        "mean_anomaly": "342.4852042444755",
        "mean_motion": ".4424328381096547",
        "equinox": "J2000",
        "orbit_class": {
            "orbit_class_type": "AMO",
            "orbit_class_description": "Near-Earth asteroid orbits similar to that of 1221 Amor",
            "orbit_class_range": "1.017 AU < q (perihelion) < 1.3 AU"
        }
    },
    "is_sentry_object": false
}